#dP2024  8  6 18  0  0.00000000      96 __u+U IGS20 EXT  IAC
## 2326 237600.00000000   900.00000000 60528 0.7500000000000
+   53   G02G03G04G05G06G07G08G09G10G11G12G13G14G15G16G17G18
+        G19G20G21G22G23G24G25G26G27G28G29G30G31G32R01R02R03
+        R04R05R07R08R09R11R12R14R15R16R17R18R19R20R21R22R24
+        R25R26  0  0  0  0  0  0  0  0  0  0  0  0  0  0  0
+          0  0  0  0  0  0  0  0  0  0  0  0  0  0  0  0  0
++         9  8  8 10  9  7  9  7  7  8  8 10  7  8  8  8  7
++         8  7  9  7  7  8  7  7  8  8  7  8  7  8  8  9  7
++         9  7  7  7  8  8  7  8  8  7  7  8  8  8  7  8 10
++         9  7  0  0  0  0  0  0  0  0  0  0  0  0  0  0  0
++         0  0  0  0  0  0  0  0  0  0  0  0  0  0  0  0  0
%c M  cc GPS ccc cccc cccc cccc cccc ccccc ccccc ccccc ccccc
%c cc cc ccc ccc cccc cccc cccc cccc ccccc ccccc ccccc ccccc
%f  0.0000000  0.000000000  0.00000000000  0.000000000000000
%f  0.0000000  0.000000000  0.00000000000  0.000000000000000
%i    0    0    0    0      0      0      0      0         0
%i    0    0    0    0      0      0      0      0         0
/* IAC                                ULTRA-RAPID PREDICTION
/* S/V CLOCKS ARE ALIGNED TO GNSS TIME                      
/* G:C1WC2W R:C1PC2P E:C1XC5X C:C2IC6I J:C1CC2S             
/* PCV:IGS20_2317 OL/AL:FES2004  NONE     YN ORB:CoN CLK:CoN
*  2024 08 07 13 30  0.00000000
PG02  18760.841526  13504.275145 -12885.775008   -383.732050
PG03  12494.204262  19894.700584  12337.287569    490.515917
PG04  12001.399764   9533.927014  21717.332021    419.458451
PG05  -5030.287854 -25895.759376   2529.121680   -182.401150
PG06  17010.392743  -7438.464738  19098.090482    113.521236
PG07  25854.456406   6137.034340  -3017.050832    -55.683548
PG08   2166.473972  17524.605832 -19822.101382    306.295476
PG09  19737.348723  -1660.901742  17632.448214    304.485108
PG10 -11658.503858  11344.692238 -20710.357507    -87.177022
PG11   2447.005126 -15120.422349  21730.863557   -717.832928
PG12 -10038.152845 -22485.091507   9734.890941   -528.492099
PG13   7887.951626 -19078.736399 -16792.365632    669.377922
PG14  14217.970363  -7214.595046 -21173.121509    466.940505
PG15  -4698.734992 -17451.056497 -19923.021590    189.895276
PG16   -720.603148  25655.117845   5513.627707   -215.127319
PG17  22413.980242 -13274.932994  -5196.170018    660.446813
PG18 -25677.416362  -5569.604104  -4591.068427   -644.083999
PG19  19982.845019 -16893.690590   2794.075785    521.314631
PG20    440.260363 -23274.265358  12990.203531    371.933003
PG21  14321.610842  15128.372478 -16632.023235    104.333907
PG22  10719.229949 -16066.493200 -17944.511557    -48.603850
PG23 -15430.612011  -2532.954298 -21475.375238    291.858702
PG24 -16577.994303 -15026.323923 -15049.536206   -485.686399
PG25 -15528.683071 -12881.263402  17068.067367    499.142062
PG26  -7241.085232  19067.987155  16660.512962    105.217639
PG27  -8698.111459  20960.429993 -13735.616260    -32.663299
PG28 -18852.051691   7105.104825  17299.076294   -363.086421
PG29 -17802.832043  -3089.987081  19462.791110   -585.406983
PG30  23077.224215  -2568.947253 -12978.603356   -344.201141
PG31  -8144.568347  13195.405806  21373.776699   -226.099239
PG32 -21085.865574  15331.631360  -4268.015265   -607.460882
PR01 -13091.070606  21044.507212  -6068.701486     93.779971
PR02  -5831.407635  22265.311785  10964.020753    -24.021102
PR03   5785.289056  11450.102972  22078.462938    105.188509
PR04  13621.758952  -5232.048259  20950.856930    248.824150
PR05  14510.634509 -19146.343629   8617.159447    135.718251
PR07  -6069.899806 -10972.049572 -22185.453948     88.304437
PR08 -13698.789952   5543.250140 -20725.477034     -6.298565
PR09  -6772.180692 -20835.300649 -12968.324096    202.067406
PR11 -16120.770139  -9036.191592  17586.968914     15.667485
PR12  -6723.540273   9587.220690  22690.866129     43.360473
PR14  15568.988646  19875.133925  -3709.276031     26.774614
PR15  15741.907717   7614.897614 -18549.628714     77.094238
PR16   6699.432126  -9325.398672 -22757.894579     28.043600
PR17  17392.350227   7053.462923 -17242.376543    111.448577
PR18  25398.168027    227.583555  -2557.896118    155.842288
PR19  21820.664965  -5484.723629  12002.376334   -286.697724
PR20   2243.095491 -10366.567341  23205.606248   -117.289457
PR21 -16954.525761  -7315.029423  17614.190881   -123.997923
PR22 -25466.412557   -349.337231   1400.141014     74.178609
PR24  -1143.240841  10926.232269 -23007.565371    -66.850966
PR25 -17449.289894  -7830.522824  16897.110291    -99.735167
PR26 -13274.370718   4207.450238 -21359.979303      8.400747
*  2024 08 07 13 45  0.00000000
PG02  17098.976561  13351.286255 -15063.253519   -383.725244
PG03  12644.592325  21179.979229   9833.300974    490.529621
PG04  10152.772067  11198.545483  21853.077786    419.465202
PG05  -4677.383494 -25507.727515   5364.459661   -182.402241
PG06  18963.259568  -6746.686812  17447.915083    113.499645
PG07  26014.550894   6445.039807   -216.316645    -55.677879
PG08    538.804596  18991.953647 -18492.848882    306.308932
PG09  18343.806236    -58.733537  19138.398318    304.498988
PG10 -12308.924083   8971.617007 -21504.254092    -87.186668
PG11   4804.186348 -14327.863389  21868.724539   -717.838192
PG12  -9977.593623 -23507.876809   7104.615109   -528.494752
PG13   9425.236620 -19984.452583 -14780.137740    669.379961
PG14  14790.889757  -4825.426942 -21477.063255    466.948390
PG15  -3297.806943 -19053.028701 -18647.284439    189.899193
PG16  -1127.151186  24871.604563   8245.664966   -215.117953
PG17  21949.274921 -12592.283940  -7923.922746    660.438704
PG18 -25964.817033  -5865.346681  -1750.716688   -644.087025
PG19  20285.422000 -16787.785307    -93.958418    521.319339
PG20   1271.581831 -21897.458265  15146.491715    371.932637
PG21  12300.160770  14849.815604 -18278.977178    104.331942
PG22  11175.300462 -13906.506605 -19354.841883    -48.607699
PG23 -16023.768073  -4865.197433 -20642.391888    291.866561
PG24 -14822.273367 -14891.608388 -16915.233910   -485.687224
PG25 -15840.245460 -14762.148222  15216.951992    499.142296
PG26  -8098.016652  17196.869644  18247.570187    105.210931
PG27  -9865.827088  21783.117114 -11381.490838    -32.663849
PG28 -20626.500224   6481.261087  15418.432771   -363.100050
PG29 -16086.901280  -4618.073710  20606.184028   -585.405003
PG30  24321.621221  -1941.090964 -10656.950386   -344.195042
PG31 -10480.681297  12424.515914  20851.186115   -226.098932
PG32 -20785.172042  14673.838308  -7040.336502   -607.458515
PR01 -12591.387500  20241.544318  -9100.504717     93.781048
PR02  -6197.094400  23385.253715   8021.656270    -24.021260
PR03   4720.572691  13871.625185  20905.045553    105.189120
PR04  12415.554710  -2867.627817  22124.609188    248.825785
PR05  13822.691679 -18099.402989  11521.147664    135.718794
PR07  -4987.041267 -13422.414787 -21086.928845     88.305175
PR08 -12523.238199   3170.843456 -21932.441511     -6.298659
PR09  -5765.481297 -19390.165894 -15459.940211    202.069390
PR11 -17387.187267 -10625.876014  15345.779121     15.666385
PR12  -8340.439498   7287.177648  23008.364052     43.360882
PR14  15817.822188  20020.421764   -527.773300     26.774503
PR15  17061.283171   9334.537009 -16486.354515     77.093913
PR16   8337.287178  -7016.476320 -23046.917806     28.043865
PR17  15134.807125   7122.980071 -19232.022961    111.451580
PR18  24871.177691     58.762565  -5742.230189    155.843973
PR19  23117.922113  -5730.590973   9110.214282   -286.698937
PR20   5074.806538 -10506.044745  22693.024193   -117.289819
PR21 -14656.750821  -7359.886085  19547.723055   -124.000720
PR22 -25093.777342   -217.870788   4586.226921     74.171818
PR24  -3948.177064  11178.966848 -22574.146520    -66.852259
PR25 -15239.383322  -7831.437352  18912.085169    -99.736300
PR26 -12096.390959   1774.057819 -22373.580412      8.402610
EOF
